SINOD-D 1               
1 40968U 15058E   26068.70671034  .00006216  00000+0  50695-3 0  9998
2 40968  64.7759 210.2419 0117281  93.1753 268.2787 14.95054547101785
STARLINK-5122           
1 54179U 22141Y   26068.18982004 -.00002138  00000+0 -11632-3 0  9991
2 54179  53.2185   6.2525 0001485 100.9333 259.1826 15.08832639185786
